{
    "links": {
        "self": "http://www.neowsapp.com/rest/v1/neo/3773595?api_key=iIulBulltgU6a56xZRHN4H3l9WmuAYTsLGpBGhQ2"
    },
    "id": "3773595",
    "neo_reference_id": "3773595",
    "name": "(2017 FL127)",
    "designation": "2017 FL127",
    "nasa_jpl_url": "http://ssd.jpl.nasa.gov/sbdb.cgi?sstr=3773595",
    "absolute_magnitude_h": 22.9,
    "estimated_diameter": {
        "kilometers": {
            "estimated_diameter_min": 0.0699125232,
            "estimated_diameter_max": 0.1563291544
        },
        "meters": {
            "estimated_diameter_min": 69.9125232246,
            "estimated_diameter_max": 156.3291544087
        },
        "miles": {
            "estimated_diameter_min": 0.0434416145,
            "estimated_diameter_max": 0.097138403
        },
        "feet": {
            "estimated_diameter_min": 229.3718026961,
            "estimated_diameter_max": 512.8909429502
        }
    },
    "is_potentially_hazardous_asteroid": false,
    "close_approach_data": [
        {
            "close_approach_date": "2013-03-17",
            "close_approach_date_full": "2013-Mar-17 00:53",
            "epoch_date_close_approach": 1363481580000,
            "relative_velocity": {
                "kilometers_per_second": "21.9932236265",
                "kilometers_per_hour": "79175.6050553226",
                "miles_per_hour": "49196.6419300698"
            },
            "miss_distance": {
                "astronomical": "0.3491223175",
                "lunar": "135.8085815075",
                "kilometers": "52227955.067463725",
                "miles": "32452946.415800405"
            },
            "orbiting_body": "Earth"
        },
        {
            "close_approach_date": "2017-03-09",
            "close_approach_date_full": "2017-Mar-09 14:38",
            "epoch_date_close_approach": 1489070280000,
            "relative_velocity": {
                "kilometers_per_second": "19.2649594828",
                "kilometers_per_hour": "69353.8541380674",
                "miles_per_hour": "43093.7878670675"
            },
            "miss_distance": {
                "astronomical": "0.2271075755",
                "lunar": "88.3448468695",
                "kilometers": "33974809.555664185",
                "miles": "21110967.729308353"
            },
            "orbiting_body": "Earth"
        }
    ],
    "orbital_data": {
        "orbit_id": "3",
        "orbit_determination_date": "2017-07-12 06:17:46",
        "first_observation_date": "2017-03-24",
        "last_observation_date": "2017-04-20",
        "data_arc_in_days": 27,
        "observations_used": 22,
        "orbit_uncertainty": "7",
        "minimum_orbit_intersection": ".0383453",
        "jupiter_tisserand_invariant": "3.094",
        "epoch_osculation": "2459000.5",
        "eccentricity": ".6059679220082844",
        "semi_major_axis": "2.510358321126219",
        "inclination": "22.45117450272618",
        "ascending_node_longitude": "155.6918435862665",
        "orbital_period": "1452.787186007534",
        "perihelion_distance": ".9891617057771583",
        "perihelion_argument": "333.0077644394348",
        "aphelion_distance": "4.031554936475279",
        "perihelion_time": "2459252.101323203874",
        "mean_anomaly": "297.6533072250508",
        "mean_motion": ".2477995424707257",
        "equinox": "J2000",
        "orbit_class": {
            "orbit_class_type": "APO",
            "orbit_class_description": "Near-Earth asteroid orbits which cross the Earth’s orbit similar to that of 1862 Apollo",
            "orbit_class_range": "a (semi-major axis) > 1.0 AU; q (perihelion) < 1.017 AU"
        }
    },
    "is_sentry_object": false
}